CCSDS_OMM_VERS = 2.0
CREATION_DATE  = 
ORIGINATOR     = 

OBJECT_NAME    = SL-3 R/B
OBJECT_ID      = 1982-079B
CENTER_NAME    = EARTH
REF_FRAME      = TEME
TIME_SYSTEM    = UTC
MEAN_ELEMENT_THEORY = SGP/SGP4

EPOCH          = 2026-02-16T11:14:07.049760
MEAN_MOTION    = 15.24469276
ECCENTRICITY   = .0024264
INCLINATION    = 81.1444
RA_OF_ASC_NODE = 218.1288
ARG_OF_PERICENTER = 237.2927
MEAN_ANOMALY   = 122.5966

EPHEMERIS_TYPE = 0
CLASSIFICATION_TYPE = U
NORAD_CAT_ID   = 13403
ELEMENT_SET_NO = 999
REV_AT_EPOCH   = 37446
BSTAR          = .27571E-3
MEAN_MOTION_DOT = .6852E-4
MEAN_MOTION_DDOT = 0

CCSDS_OMM_VERS = 2.0
CREATION_DATE  = 
ORIGINATOR     = 

OBJECT_NAME    = SL-14 R/B
OBJECT_ID      = 1982-092B
CENTER_NAME    = EARTH
REF_FRAME      = TEME
TIME_SYSTEM    = UTC
MEAN_ELEMENT_THEORY = SGP/SGP4

EPOCH          = 2026-02-16T08:58:53.669856
MEAN_MOTION    = 14.86643048
ECCENTRICITY   = .0020676
INCLINATION    = 82.5709
RA_OF_ASC_NODE = 161.3304
ARG_OF_PERICENTER = 16.3178
MEAN_ANOMALY   = 43.0304

EPHEMERIS_TYPE = 0
CLASSIFICATION_TYPE = U
NORAD_CAT_ID   = 13553
ELEMENT_SET_NO = 999
REV_AT_EPOCH   = 32576
BSTAR          = .61473E-4
MEAN_MOTION_DOT = .572E-5
MEAN_MOTION_DDOT = 0

CCSDS_OMM_VERS = 2.0
CREATION_DATE  = 
ORIGINATOR     = 

OBJECT_NAME    = SL-3 R/B
OBJECT_ID      = 1983-010B
CENTER_NAME    = EARTH
REF_FRAME      = TEME
TIME_SYSTEM    = UTC
MEAN_ELEMENT_THEORY = SGP/SGP4

EPOCH          = 2026-02-16T09:37:46.111296
MEAN_MOTION    = 15.45565090
ECCENTRICITY   = .0018453
INCLINATION    = 81.1025
RA_OF_ASC_NODE = 28.3298
ARG_OF_PERICENTER = 117.8926
MEAN_ANOMALY   = 242.4190

EPHEMERIS_TYPE = 0
CLASSIFICATION_TYPE = U
NORAD_CAT_ID   = 13819
ELEMENT_SET_NO = 999
REV_AT_EPOCH   = 35465
BSTAR          = .34394E-3
MEAN_MOTION_DOT = .16678E-3
MEAN_MOTION_DDOT = 0

CCSDS_OMM_VERS = 2.0
CREATION_DATE  = 
ORIGINATOR     = 

OBJECT_NAME    = SL-3 R/B
OBJECT_ID      = 1983-075B
CENTER_NAME    = EARTH
REF_FRAME      = TEME
TIME_SYSTEM    = UTC
MEAN_ELEMENT_THEORY = SGP/SGP4

EPOCH          = 2026-02-16T11:29:26.865024
MEAN_MOTION    = 15.37865563
ECCENTRICITY   = .0020177
INCLINATION    = 97.6125
RA_OF_ASC_NODE = 51.2646
ARG_OF_PERICENTER = 309.4017
MEAN_ANOMALY   = 50.5440

EPHEMERIS_TYPE = 0
CLASSIFICATION_TYPE = U
NORAD_CAT_ID   = 14208
ELEMENT_SET_NO = 999
REV_AT_EPOCH   = 32689
BSTAR          = .35356E-3
MEAN_MOTION_DOT = .13168E-3
MEAN_MOTION_DDOT = 0

CCSDS_OMM_VERS = 2.0
CREATION_DATE  = 
ORIGINATOR     = 

OBJECT_NAME    = COSMOS 1536
OBJECT_ID      = 1984-013A
CENTER_NAME    = EARTH
REF_FRAME      = TEME
TIME_SYSTEM    = UTC
MEAN_ELEMENT_THEORY = SGP/SGP4

EPOCH          = 2026-02-16T07:27:07.622496
MEAN_MOTION    = 15.23528802
ECCENTRICITY   = .0014177
INCLINATION    = 82.5466
RA_OF_ASC_NODE = 129.0944
ARG_OF_PERICENTER = 4.0807
MEAN_ANOMALY   = 356.0543

EPHEMERIS_TYPE = 0
CLASSIFICATION_TYPE = U
NORAD_CAT_ID   = 14699
ELEMENT_SET_NO = 999
REV_AT_EPOCH   = 26936
BSTAR          = .26258E-3
MEAN_MOTION_DOT = .6319E-4
MEAN_MOTION_DDOT = 0

CCSDS_OMM_VERS = 2.0
CREATION_DATE  = 
ORIGINATOR     = 

OBJECT_NAME    = SL-14 R/B
OBJECT_ID      = 1984-027B
CENTER_NAME    = EARTH
REF_FRAME      = TEME
TIME_SYSTEM    = UTC
MEAN_ELEMENT_THEORY = SGP/SGP4

EPOCH          = 2026-02-16T01:51:51.015456
MEAN_MOTION    = 14.85954409
ECCENTRICITY   = .001915
INCLINATION    = 82.5389
RA_OF_ASC_NODE = 265.2876
ARG_OF_PERICENTER = 48.3656
MEAN_ANOMALY   = 311.9197

EPHEMERIS_TYPE = 0
CLASSIFICATION_TYPE = U
NORAD_CAT_ID   = 14820
ELEMENT_SET_NO = 999
REV_AT_EPOCH   = 24442
BSTAR          = .51835294E-4
MEAN_MOTION_DOT = .478E-5
MEAN_MOTION_DDOT = 0

CCSDS_OMM_VERS = 2.0
CREATION_DATE  = 
ORIGINATOR     = 

OBJECT_NAME    = SL-8 R/B
OBJECT_ID      = 1985-006B
CENTER_NAME    = EARTH
REF_FRAME      = TEME
TIME_SYSTEM    = UTC
MEAN_ELEMENT_THEORY = SGP/SGP4

EPOCH          = 2026-02-16T04:15:19.633248
MEAN_MOTION    = 14.37772488
ECCENTRICITY   = .00192278
INCLINATION    = 74.0460
RA_OF_ASC_NODE = 300.7343
ARG_OF_PERICENTER = 222.8827
MEAN_ANOMALY   = 299.2508

EPHEMERIS_TYPE = 0
CLASSIFICATION_TYPE = U
NORAD_CAT_ID   = 15483
ELEMENT_SET_NO = 999
REV_AT_EPOCH   = 15093
BSTAR          = .82209594E-4
MEAN_MOTION_DOT = .222E-5
MEAN_MOTION_DDOT = 0

CCSDS_OMM_VERS = 2.0
CREATION_DATE  = 
ORIGINATOR     = 

OBJECT_NAME    = SL-12 R/B(2)
OBJECT_ID      = 1985-042D
CENTER_NAME    = EARTH
REF_FRAME      = TEME
TIME_SYSTEM    = UTC
MEAN_ELEMENT_THEORY = SGP/SGP4

EPOCH          = 2026-02-16T12:37:51.321216
MEAN_MOTION    = 14.21976477
ECCENTRICITY   = .0034435
INCLINATION    = 71.1083
RA_OF_ASC_NODE = 132.4419
ARG_OF_PERICENTER = 162.2781
MEAN_ANOMALY   = 290.7055

EPHEMERIS_TYPE = 0
CLASSIFICATION_TYPE = U
NORAD_CAT_ID   = 15772
ELEMENT_SET_NO = 999
REV_AT_EPOCH   = 11138
BSTAR          = .42817E-4
MEAN_MOTION_DOT = .48E-6
MEAN_MOTION_DDOT = 0

CCSDS_OMM_VERS = 2.0
CREATION_DATE  = 
ORIGINATOR     = 

OBJECT_NAME    = SL-14 R/B
OBJECT_ID      = 1985-069B
CENTER_NAME    = EARTH
REF_FRAME      = TEME
TIME_SYSTEM    = UTC
MEAN_ELEMENT_THEORY = SGP/SGP4

EPOCH          = 2026-02-16T11:20:58.577280
MEAN_MOTION    = 14.86407369
ECCENTRICITY   = .0017134
INCLINATION    = 82.5245
RA_OF_ASC_NODE = 44.8863
ARG_OF_PERICENTER = 262.3588
MEAN_ANOMALY   = 97.5682

EPHEMERIS_TYPE = 0
CLASSIFICATION_TYPE = U
NORAD_CAT_ID   = 15945
ELEMENT_SET_NO = 999
REV_AT_EPOCH   = 16968
BSTAR          = .62637E-4
MEAN_MOTION_DOT = .578E-5
MEAN_MOTION_DDOT = 0

CCSDS_OMM_VERS = 2.0
CREATION_DATE  = 
ORIGINATOR     = 

OBJECT_NAME    = SL-16 R/B
OBJECT_ID      = 1985-097B
CENTER_NAME    = EARTH
REF_FRAME      = TEME
TIME_SYSTEM    = UTC
MEAN_ELEMENT_THEORY = SGP/SGP4

EPOCH          = 2026-02-16T12:31:29.193024
MEAN_MOTION    = 14.16594504
ECCENTRICITY   = .0009693
INCLINATION    = 71.0024
RA_OF_ASC_NODE = 185.1142
ARG_OF_PERICENTER = 284.1321
MEAN_ANOMALY   = 144.8681

EPHEMERIS_TYPE = 0
CLASSIFICATION_TYPE = U
NORAD_CAT_ID   = 16182
ELEMENT_SET_NO = 999
REV_AT_EPOCH   = 8423
BSTAR          = -.51012E-4
MEAN_MOTION_DOT = -.15E-5
MEAN_MOTION_DDOT = 0

CCSDS_OMM_VERS = 2.0
CREATION_DATE  = 
ORIGINATOR     = 

OBJECT_NAME    = SL-14 R/B
OBJECT_ID      = 1986-006B
CENTER_NAME    = EARTH
REF_FRAME      = TEME
TIME_SYSTEM    = UTC
MEAN_ELEMENT_THEORY = SGP/SGP4

EPOCH          = 2026-02-16T02:51:24.397632
MEAN_MOTION    = 14.86786273
ECCENTRICITY   = .00762765
INCLINATION    = 82.5255
RA_OF_ASC_NODE = 280.0419
ARG_OF_PERICENTER = 345.4059
MEAN_ANOMALY   = 14.4954

EPHEMERIS_TYPE = 0
CLASSIFICATION_TYPE = U
NORAD_CAT_ID   = 16496
ELEMENT_SET_NO = 999
REV_AT_EPOCH   = 14600
BSTAR          = .73839924E-4
MEAN_MOTION_DOT = .719E-5
MEAN_MOTION_DDOT = 0

CCSDS_OMM_VERS = 2.0
CREATION_DATE  = 
ORIGINATOR     = 

OBJECT_NAME    = COSMOS 1743
OBJECT_ID      = 1986-034A
CENTER_NAME    = EARTH
REF_FRAME      = TEME
TIME_SYSTEM    = UTC
MEAN_ELEMENT_THEORY = SGP/SGP4

EPOCH          = 2026-02-16T12:10:54.973344
MEAN_MOTION    = 15.56984531
ECCENTRICITY   = .0004408
INCLINATION    = 82.5311
RA_OF_ASC_NODE = 96.0353
ARG_OF_PERICENTER = 29.4413
MEAN_ANOMALY   = 330.7089

EPHEMERIS_TYPE = 0
CLASSIFICATION_TYPE = U
NORAD_CAT_ID   = 16719
ELEMENT_SET_NO = 999
REV_AT_EPOCH   = 17695
BSTAR          = .50829E-3
MEAN_MOTION_DOT = .36803E-3
MEAN_MOTION_DDOT = 0

