SL-3 R/B                
1 13403U 82079B   26047.46813715  .00006852  00000+0  27571-3 0  9996
2 13403  81.1444 218.1288 0024264 237.2927 122.5966 15.24469276374466
SL-14 R/B               
1 13553U 82092B   26047.37423229  .00000572  00000+0  61473-4 0  9997
2 13553  82.5709 161.3304 0020676  16.3178  43.0304 14.86643048325766
SL-3 R/B                
1 13819U 83010B   26047.40122814  .00016678  00000+0  34394-3 0  9998
2 13819  81.1025  28.3298 0018453 117.8926 242.4190 15.45565090354653
SL-3 R/B                
1 14208U 83075B   26047.47878316  .00013168  00000+0  35356-3 0  9994
2 14208  97.6125  51.2646 0020177 309.4017  50.5440 15.37865563326897
COSMOS 1536             
1 14699U 84013A   26047.31050489  .00006319  00000+0  26258-3 0  9998
2 14699  82.5466 129.0944 0014177   4.0807 356.0543 15.23528802269368
SL-14 R/B               
1 14820U 84027B   26047.07767379  .00000478  00000+0  51835-4 0  9995
2 14820  82.5389 265.2876 0019150  48.3656 311.9197 14.85954409244422
SL-8 R/B                
1 15483U 85006B   26047.17731057  .00000222  00000+0  82210-4 0  9992
2 15483  74.0460 300.7343 0019227 222.8827 299.2508 14.37772488150930
SL-12 R/B(2)            
1 15772U 85042D   26047.52628844  .00000048  00000+0  42817-4 0  9996
2 15772  71.1083 132.4419 0034435 162.2781 290.7055 14.21976477111384
SL-14 R/B               
1 15945U 85069B   26047.47290020  .00000578  00000+0  62637-4 0  9992
2 15945  82.5245  44.8863 0017134 262.3588  97.5682 14.86407369169680
SL-16 R/B               
1 16182U 85097B   26047.52186566 -.00000150  00000+0 -51012-4 0  9995
2 16182  71.0024 185.1142 0009693 284.1321 144.8681 14.16594504 84232
SL-14 R/B               
1 16496U 86006B   26047.11903238  .00000719  00000+0  73840-4 0  9994
2 16496  82.5255 280.0419 0076276 345.4059  14.4954 14.86786273146007
COSMOS 1743             
1 16719U 86034A   26047.50758071  .00036803  00000+0  50829-3 0  9993
2 16719  82.5311  96.0353 0004408  29.4413 330.7089 15.56984531176956
